{
  "norad_id": 48376,
  "name": "STARLINK-2610",
  "history": [
    {
      "epoch": "2026-03-28T18:13:15.480480Z",
      "apogee_km": 475.7958862160576,
      "perigee_km": 474.45867728940266,
      "latitude_deg": -1.6218029302372147e-05,
      "longitude_deg": 159.73444152805357,
      "height_km": 475.92499930095266,
      "semi_major_axis_km": 6853.26428175273,
      "eccentricity": 9.756e-05,
      "inclination_deg": 53.1577,
      "raan_deg": 259.224,
      "arg_perigee_deg": 81.3516,
      "mean_anomaly_deg": 278.7595,
      "mean_motion_rev_day": 15.30229402
    },
    {
      "epoch": "2026-03-30T01:34:19.938720Z",
      "apogee_km": 476.01324117389686,
      "perigee_km": 474.4753424120181,
      "latitude_deg": 4.01767344749545e-05,
      "longitude_deg": 42.1100584272435,
      "height_km": 475.9849472750819,
      "semi_major_axis_km": 6853.381291792957,
      "eccentricity": 0.0001122,
      "inclination_deg": 53.1584,
      "raan_deg": 253.1557,
      "arg_perigee_deg": 78.1827,
      "mean_anomaly_deg": 281.93,
      "mean_motion_rev_day": 15.30190213
    }
  ]
}